OBJECT_NAME,OBJECT_ID,EPOCH,MEAN_MOTION,ECCENTRICITY,INCLINATION,RA_OF_ASC_NODE,ARG_OF_PERICENTER,MEAN_ANOMALY,EPHEMERIS_TYPE,CLASSIFICATION_TYPE,NORAD_CAT_ID,ELEMENT_SET_NO,REV_AT_EPOCH,BSTAR,MEAN_MOTION_DOT,MEAN_MOTION_DDOT
STARLINK-32247,2024-144X,2026-06-27T02:09:09.247104,15.30216104,.0001254,53.1612,58.5513,97.0046,263.1098,0,U,60446,999,10624,.10044047E-3,.2618E-4,0
STARLINK-32101,2024-144Y,2026-06-27T09:05:29.109696,15.34390276,.0001315,53.1610,65.4698,117.7151,242.3985,0,U,60447,999,10613,-.40978E-4,-.176E-4,0
LEGION 3,2024-146A,2026-06-27T11:25:17.480064,15.16025654,.0008633,45.0023,335.3732,229.6963,130.3162,0,U,60452,999,10358,.20835E-3,.3813E-4,0
LEGION 4,2024-146B,2026-06-27T09:54:55.025568,15.16108432,.0012609,45.0020,67.6195,4.0643,356.0336,0,U,60453,999,10242,.23275E-3,.4304E-4,0
EOS-08,2024-147A,2026-06-27T12:55:48.791424,15.49637986,.000451,37.3820,351.7662,347.1984,12.8667,0,U,60454,999,10468,.70954E-3,.40498E-3,0
YAOGAN-43 01A,2024-148A,2026-06-27T04:18:57.547008,15.35956111,.00063086,35.0048,74.5778,301.5132,58.4970,0,U,60458,999,10398,.47036227E-3,.1692E-3,0
YAOGAN-43 01B,2024-148B,2026-06-27T09:53:44.242368,15.36059081,.0009307,34.9931,68.4717,302.2162,57.7654,0,U,60459,999,10400,.38417E-3,.13863E-3,0
YAOGAN-43 01C,2024-148C,2026-06-27T05:55:24.932640,15.22868879,.0006852,34.9993,99.2291,286.8759,73.1204,0,U,60460,999,10367,.39525E-3,.9465E-4,0
YAOGAN-43 01D,2024-148D,2026-06-27T10:32:23.526816,15.29984317,.0003292,35.0059,83.3221,277.4301,82.6042,0,U,60461,999,10385,.25433E-3,.7542E-4,0
YAOGAN-43 01E,2024-148E,2026-06-27T05:51:03.968352,15.22919653,.0006458,34.9930,96.9258,304.2641,55.7461,0,U,60462,999,10369,.47095E-3,.11305E-3,0
YAOGAN-43 01F,2024-148F,2026-06-27T03:34:40.200960,15.32683052,.00087429,34.9917,84.6696,305.5310,54.4592,0,U,60463,999,10381,.47388781E-3,.15362E-3,0
YAOGAN-43 01G,2024-148G,2026-06-27T10:47:15.086688,15.29945363,.0007039,35.0033,83.6139,244.2800,115.7190,0,U,60464,999,10385,.25548E-3,.7571E-4,0
YAOGAN-43 01H,2024-148H,2026-06-27T04:45:02.427264,15.27890924,.00082926,34.9905,93.7402,281.1323,78.8460,0,U,60465,999,10372,.2710041E-3,.7542E-4,0
YAOGAN-43 01J,2024-148J,2026-06-27T09:00:12.108960,15.36602771,.0008342,34.9922,68.2906,344.8299,15.2169,0,U,60466,999,10400,.39727E-3,.14589E-3,0
TRANSPORTER-11 OBJECT A,2024-149A,2026-06-27T11:12:19.434240,15.33069755,.0003798,97.3737,258.3649,161.8629,198.2750,0,U,60468,999,10363,.28886E-3,.9153E-4,0
WARATAH SEED-1,2024-149B,2026-06-27T05:00:07.904448,15.36188545,.00023412,97.3694,258.7931,155.1819,204.9538,0,U,60469,999,10365,.39599838E-3,.13894E-3,0
PHISAT 2,2024-149C,2026-06-27T04:15:04.466592,15.31191002,.0002029,97.3760,257.3380,154.2473,205.8870,0,U,60470,999,10352,.25333402E-3,.7556E-4,0
LEMUR-2-TOMATOKECHUP,2024-149D,2026-06-27T12:43:02.940960,15.36239523,.0002321,97.3805,260.6035,156.0649,204.0703,0,U,60471,999,10375,.30431E-3,.10671E-3,0
CONNECTA IOT-1,2024-149E,2026-06-27T11:20:54.063744,15.23616149,.0001151,97.3762,254.5905,184.3590,175.7638,0,U,60472,999,10336,.18663E-3,.4399E-4,0
LOPEN,2024-149F,2026-06-27T11:06:41.262048,15.39975442,.0001687,97.3785,261.9124,165.2071,194.9224,0,U,60473,999,10384,.40949E-3,.16255E-3,0
ROCK,2024-149G,2026-06-27T04:33:08.170560,15.39959445,.00019735,97.3780,261.6519,167.5776,192.5519,0,U,60474,999,10380,.41182346E-3,.1634E-3,0
CONNECTA IOT-3,2024-149H,2026-06-27T11:51:33.834240,15.23628224,.0002212,97.3738,254.3615,194.3375,165.7800,0,U,60475,999,10337,.18353E-3,.4326E-4,0
QUBE,2024-149J,2026-06-27T04:43:25.273920,15.47663610,.00025549,97.3783,264.8253,167.4703,192.6611,0,U,60476,999,10401,.57200452E-3,.29526E-3,0
WREN-1,2024-149L,2026-06-27T04:40:08.376960,15.41938533,.00040552,97.3771,262.4140,207.8580,152.2451,0,U,60478,999,10386,.56436621E-3,.2397E-3,0
TOMORROW-S1,2024-149M,2026-06-27T04:33:33.935904,15.32855865,.00025701,97.3756,258.6309,176.4150,183.7111,0,U,60479,999,10362,.26310984E-3,.8272E-4,0
FLOCK 4BE-18,2024-149N,2026-06-27T11:07:49.207008,15.42177845,.0003832,97.3734,262.3022,196.1916,163.9210,0,U,60480,999,10389,.43112E-3,.18423E-3,0
FLOCK 4BE-7,2024-149P,2026-06-27T11:32:59.956800,15.40724736,.0003018,97.3764,261.6396,196.4674,163.6475,0,U,60481,999,10383,.53619E-3,.21861E-3,0
TOMORROW-S2,2024-149T,2026-06-27T11:33:11.911968,15.32896668,.0002139,97.3823,259.4201,200.5443,159.5714,0,U,60485,999,10366,.27079E-3,.8527E-4,0
FLOCK 4BE-36,2024-149U,2026-06-27T04:04:59.056608,15.43016774,.00032932,97.3750,262.7191,207.8232,152.2840,0,U,60486,999,10389,.38172536E-3,.16762E-3,0
FLOCK 4BE-25,2024-149V,2026-06-27T03:59:18.567168,15.39085913,.00023148,97.3803,261.3849,184.6848,175.4376,0,U,60487,999,10377,.41767245E-3,.16105E-3,0
